[{"OBJECT_NAME":"SHIYAN-1 (SY-1)","OBJECT_ID":"2004-012A","EPOCH":"2026-03-09T17:40:34.066560","MEAN_MOTION":15.31043463,"ECCENTRICITY":0.00058726,"INCLINATION":97.8764,"RA_OF_ASC_NODE":140.5238,"ARG_OF_PERICENTER":23.6952,"MEAN_ANOMALY":336.4557,"EPHEMERIS_TYPE":0,"CLASSIFICATION_TYPE":"U","NORAD_CAT_ID":28220,"ELEMENT_SET_NO":999,"REV_AT_EPOCH":19586,"BSTAR":0.00054854449,"MEAN_MOTION_DOT":0.00016393,"MEAN_MOTION_DDOT":0},{"OBJECT_NAME":"STARLINK-32031","OBJECT_ID":"2024-120H","EPOCH":"2026-03-09T22:48:09.172224","MEAN_MOTION":15.30163001,"ECCENTRICITY":0.00014009,"INCLINATION":53.1613,"RA_OF_ASC_NODE":318.8869,"ARG_OF_PERICENTER":77.2774,"MEAN_ANOMALY":282.8383,"EPHEMERIS_TYPE":0,"CLASSIFICATION_TYPE":"U","NORAD_CAT_ID":60142,"ELEMENT_SET_NO":999,"REV_AT_EPOCH":9649,"BSTAR":-6.2757112e-5,"MEAN_MOTION_DOT":-2.215e-5,"MEAN_MOTION_DDOT":0}]
